{
  "schema": "int-telemetry-real-tle-snapshot/v1",
  "source": "celestrak",
  "group": "STARLINK",
  "format": "celestrak-gp-json",
  "source_url": "https://celestrak.org/NORAD/elements/gp.php?NAME=STARLINK&FORMAT=JSON",
  "downloaded_at": "2026-07-07T07:29:27.338Z",
  "generated_at": "2026-07-07T07:29:37.186Z",
  "fingerprint": "4a165085",
  "shell_id": "starlink-real-43deg-490km",
  "catalog_count": 10705,
  "shell_count": 3263,
  "selected_count": 348,
  "mean_altitude_km": 490.18,
  "mean_inclination_deg": 43.0022,
  "mean_mean_motion_rev_per_day": 15.27582862,
  "layout": {
    "planes": 6,
    "satellites_per_plane": 58,
    "selection_strategy": "target-shell-raan-clusters-even-slot-sampling",
    "raan_cluster_threshold_deg": 3,
    "target_inclination_deg": 43,
    "target_altitude_km": 490,
    "selected_shell_key": "43.0deg-500km",
    "target_shell_distance": 0.46
  },
  "satellites": [
    {
      "satellite_id": "P04-S43",
      "norad_id": 59639,
      "satellite_name": "STARLINK-31807",
      "cospar_id": "2024-082J",
      "shell_id": "starlink-real-43deg-490km",
      "plane_id": 3,
      "slot_id": 42,
      "epoch": "2026-07-06T17:25:54.633792",
      "inclination": 43.0036,
      "raan": 187.84590000000003,
      "eccentricity": 0.0001997,
      "argument_of_perigee": 256.5775,
      "mean_anomaly": 103.48540000000003,
      "mean_motion": 15.27569591,
      "bstar": -0.000097895,
      "status": "active",
      "raw_omm": {
        "OBJECT_NAME": "STARLINK-31807",
        "OBJECT_ID": "2024-082J",
        "EPOCH": "2026-07-06T17:25:54.633792",
        "MEAN_MOTION": 15.27569591,
        "ECCENTRICITY": 0.0001997,
        "INCLINATION": 43.0036,
        "RA_OF_ASC_NODE": 187.8459,
        "ARG_OF_PERICENTER": 256.5775,
        "MEAN_ANOMALY": 103.4854,
        "EPHEMERIS_TYPE": 0,
        "CLASSIFICATION_TYPE": "U",
        "NORAD_CAT_ID": 59639,
        "ELEMENT_SET_NO": 999,
        "REV_AT_EPOCH": 12301,
        "BSTAR": -0.000097895,
        "MEAN_MOTION_DOT": -0.00002954,
        "MEAN_MOTION_DDOT": 0
      },
      "source": "celestrak",
      "source_url": "https://celestrak.org/NORAD/elements/gp.php?NAME=STARLINK&FORMAT=JSON",
      "catalog_fingerprint": "4a165085"
    },
    {
      "satellite_id": "P04-S44",
      "norad_id": 67631,
      "satellite_name": "STARLINK-36527",
      "cospar_id": "2026-020Q",
      "shell_id": "starlink-real-43deg-490km",
      "plane_id": 3,
      "slot_id": 43,
      "epoch": "2026-07-06T17:24:03.570048",
      "inclination": 43.004,
      "raan": 187.95450000000005,
      "eccentricity": 0.0002059,
      "argument_of_perigee": 260.6553,
      "mean_anomaly": 99.40660000000003,
      "mean_motion": 15.27565971,
      "bstar": 0.00059584,
      "status": "active",
      "raw_omm": {
        "OBJECT_NAME": "STARLINK-36527",
        "OBJECT_ID": "2026-020Q",
        "EPOCH": "2026-07-06T17:24:03.570048",
        "MEAN_MOTION": 15.27565971,
        "ECCENTRICITY": 0.0002059,
        "INCLINATION": 43.004,
        "RA_OF_ASC_NODE": 187.9545,
        "ARG_OF_PERICENTER": 260.6553,
        "MEAN_ANOMALY": 99.4066,
        "EPHEMERIS_TYPE": 0,
        "CLASSIFICATION_TYPE": "U",
        "NORAD_CAT_ID": 67631,
        "ELEMENT_SET_NO": 999,
        "REV_AT_EPOCH": 2431,
        "BSTAR": 0.00059584,
        "MEAN_MOTION_DOT": 0.00016163,
        "MEAN_MOTION_DDOT": 0
      },
      "source": "celestrak",
      "source_url": "https://celestrak.org/NORAD/elements/gp.php?NAME=STARLINK&FORMAT=JSON",
      "catalog_fingerprint": "4a165085"
    },
    {
      "satellite_id": "P04-S45",
      "norad_id": 67638,
      "satellite_name": "STARLINK-36599",
      "cospar_id": "2026-020X",
      "shell_id": "starlink-real-43deg-490km",
      "plane_id": 3,
      "slot_id": 44,
      "epoch": "2026-07-06T17:22:13.804032",
      "inclination": 43.0064,
      "raan": 187.93769999999995,
      "eccentricity": 0.000286,
      "argument_of_perigee": 267.93499999999995,
      "mean_anomaly": 92.11739999999998,
      "mean_motion": 15.27560383,
      "bstar": 0.00055514,
      "status": "active",
      "raw_omm": {
        "OBJECT_NAME": "STARLINK-36599",
        "OBJECT_ID": "2026-020X",
        "EPOCH": "2026-07-06T17:22:13.804032",
        "MEAN_MOTION": 15.27560383,
        "ECCENTRICITY": 0.000286,
        "INCLINATION": 43.0064,
        "RA_OF_ASC_NODE": 187.9377,
        "ARG_OF_PERICENTER": 267.935,
        "MEAN_ANOMALY": 92.1174,
        "EPHEMERIS_TYPE": 0,
        "CLASSIFICATION_TYPE": "U",
        "NORAD_CAT_ID": 67638,
        "ELEMENT_SET_NO": 999,
        "REV_AT_EPOCH": 2431,
        "BSTAR": 0.00055514,
        "MEAN_MOTION_DOT": 0.00015037,
        "MEAN_MOTION_DDOT": 0
      },
      "source": "celestrak",
      "source_url": "https://celestrak.org/NORAD/elements/gp.php?NAME=STARLINK&FORMAT=JSON",
      "catalog_fingerprint": "4a165085"
    },
    {
      "satellite_id": "P04-S46",
      "norad_id": 58194,
      "satellite_name": "STARLINK-30830",
      "cospar_id": "2023-167V",
      "shell_id": "starlink-real-43deg-490km",
      "plane_id": 3,
      "slot_id": 45,
      "epoch": "2026-07-06T17:21:23.836320",
      "inclination": 43.0049,
      "raan": 190.8043,
      "eccentricity": 0.0001426,
      "argument_of_perigee": 268.24559999999997,
      "mean_anomaly": 91.82330000000002,
      "mean_motion": 15.27563775,
      "bstar": -0.000077542,
      "status": "active",
      "raw_omm": {
        "OBJECT_NAME": "STARLINK-30830",
        "OBJECT_ID": "2023-167V",
        "EPOCH": "2026-07-06T17:21:23.836320",
        "MEAN_MOTION": 15.27563775,
        "ECCENTRICITY": 0.0001426,
        "INCLINATION": 43.0049,
        "RA_OF_ASC_NODE": 190.8043,
        "ARG_OF_PERICENTER": 268.2456,
        "MEAN_ANOMALY": 91.8233,
        "EPHEMERIS_TYPE": 0,
        "CLASSIFICATION_TYPE": "U",
        "NORAD_CAT_ID": 58194,
        "ELEMENT_SET_NO": 999,
        "REV_AT_EPOCH": 14919,
        "BSTAR": -0.000077542,
        "MEAN_MOTION_DOT": -0.00002394,
        "MEAN_MOTION_DDOT": 0
      },
      "source": "celestrak",
      "source_url": "https://celestrak.org/NORAD/elements/gp.php?NAME=STARLINK&FORMAT=JSON",
      "catalog_fingerprint": "4a165085"
    },
    {
      "satellite_id": "P04-S47",
      "norad_id": 58190,
      "satellite_name": "STARLINK-30820",
      "cospar_id": "2023-167R",
      "shell_id": "starlink-real-43deg-490km",
      "plane_id": 3,
      "slot_id": 46,
      "epoch": "2026-07-06T17:19:33.067200",
      "inclination": 43.0033,
      "raan": 190.81500000000005,
      "eccentricity": 0.0000913,
      "argument_of_perigee": 280.6745000000001,
      "mean_anomaly": 79.40039999999999,
      "mean_motion": 15.27554415,
      "bstar": -0.000090332,
      "status": "active",
      "raw_omm": {
        "OBJECT_NAME": "STARLINK-30820",
        "OBJECT_ID": "2023-167R",
        "EPOCH": "2026-07-06T17:19:33.067200",
        "MEAN_MOTION": 15.27554415,
        "ECCENTRICITY": 0.0000913,
        "INCLINATION": 43.0033,
        "RA_OF_ASC_NODE": 190.815,
        "ARG_OF_PERICENTER": 280.6745,
        "MEAN_ANOMALY": 79.4004,
        "EPHEMERIS_TYPE": 0,
        "CLASSIFICATION_TYPE": "U",
        "NORAD_CAT_ID": 58190,
        "ELEMENT_SET_NO": 999,
        "REV_AT_EPOCH": 14919,
        "BSTAR": -0.000090332,
        "MEAN_MOTION_DOT": -0.00002745,
        "MEAN_MOTION_DDOT": 0
      },
      "source": "celestrak",
      "source_url": "https://celestrak.org/NORAD/elements/gp.php?NAME=STARLINK&FORMAT=JSON",
      "catalog_fingerprint": "4a165085"
    },
    {
      "satellite_id": "P04-S48",
      "norad_id": 59244,
      "satellite_name": "STARLINK-31285",
      "cospar_id": "2024-049P",
      "shell_id": "starlink-real-43deg-490km",
      "plane_id": 3,
      "slot_id": 47,
      "epoch": "2026-07-06T17:17:43.452384",
      "inclination": 43.0017,
      "raan": 191.02750000000003,
      "eccentricity": 0.0001127,
      "argument_of_perigee": 281.2632,
      "mean_anomaly": 78.80930000000001,
      "mean_motion": 15.27576775,
      "bstar": -0.000017237,
      "status": "active",
      "raw_omm": {
        "OBJECT_NAME": "STARLINK-31285",
        "OBJECT_ID": "2024-049P",
        "EPOCH": "2026-07-06T17:17:43.452384",
        "MEAN_MOTION": 15.27576775,
        "ECCENTRICITY": 0.0001127,
        "INCLINATION": 43.0017,
        "RA_OF_ASC_NODE": 191.0275,
        "ARG_OF_PERICENTER": 281.2632,
        "MEAN_ANOMALY": 78.8093,
        "EPHEMERIS_TYPE": 0,
        "CLASSIFICATION_TYPE": "U",
        "NORAD_CAT_ID": 59244,
        "ELEMENT_SET_NO": 999,
        "REV_AT_EPOCH": 13060,
        "BSTAR": -0.000017237,
        "MEAN_MOTION_DOT": -0.00000736,
        "MEAN_MOTION_DDOT": 0
      },
      "source": "celestrak",
      "source_url": "https://celestrak.org/NORAD/elements/gp.php?NAME=STARLINK&FORMAT=JSON",
      "catalog_fingerprint": "4a165085"
    }
  ]
}