STARLINK-30820          
1 58190U 23167R   26187.72191050 -.00002745  00000+0 -90332-4 0  9991
2 58190  43.0033 190.8150 0000913 280.6745  79.4004 15.27554415149194
STARLINK-30830          
1 58194U 23167V   26187.72319255 -.00002394  00000+0 -77542-4 0  9992
2 58194  43.0049 190.8043 0001426 268.2456  91.8233 15.27563775149198
STARLINK-31285          
1 59244U 24049P   26187.72064181 -.00000736  00000+0 -17237-4 0  9997
2 59244  43.0017 191.0275 0001127 281.2632  78.8093 15.27576775130608
STARLINK-31807          
1 59639U 24082J   26187.72632678 -.00002954  00000+0 -97895-4 0  9996
2 59639  43.0036 187.8459 0001997 256.5775 103.4854 15.27569591123017
STARLINK-36527          
1 67631U 26020Q   26187.72504132  .00016163  00000+0  59584-3 0  9991
2 67631  43.0040 187.9545 0002059 260.6553  99.4066 15.27565971 24310
STARLINK-36599          
1 67638U 26020X   26187.72377088  .00015037  00000+0  55514-3 0  9994
2 67638  43.0064 187.9377 0002860 267.9350  92.1174 15.27560383 24313
